{"type": "FeatureCollection", "features": [ {"type": "Feature", "properties": {"norad_id": 66936, "name": "STARLINK-36160", "group": "last-30-days", "lat": -11.808235236273415, "lon": -139.83488408961887, "alt_km": 308.9566111895365, "timestamp": "2025-12-16T13:52:36.289246+00:00", "meta": {"OBJECT_NAME": "STARLINK-36160", "OBJECT_ID": "2025-286M", "EPOCH": "2025-12-15T22:00:01.999584", "MEAN_MOTION": 15.90255108, "ECCENTRICITY": 5.2e-05, "INCLINATION": 53.1566, "RA_OF_ASC_NODE": 34.5043, "ARG_OF_PERICENTER": 94.2707, "MEAN_ANOMALY": 273.2809, "EPHEMERIS_TYPE": 0, "CLASSIFICATION_TYPE": "U", "NORAD_CAT_ID": 66936, "ELEMENT_SET_NO": 999, "REV_AT_EPOCH": 250, "BSTAR": -0.0045225336, "MEAN_MOTION_DOT": -0.01250275, "MEAN_MOTION_DDOT": 0}, "tle": {"line1": "1 66936U 25286M   25349.91668981 -.01250275  00000+0 -45225-2 0  9997", "line2": "2 66936  53.1566  34.5043 0000520  94.2707 273.2809 15.90255108  2507"}}, "geometry": {"type": "Point", "coordinates": [-139.83488408961887, -11.808235236273415]}}, {"type": "Feature", "properties": {"norad_id": 66937, "name": "STARLINK-36165", "group": "last-30-days", "lat": -13.38481524387986, "lon": -138.58025881520902, "alt_km": 309.1969993651428, "timestamp": "2025-12-16T13:52:36.289256+00:00", "meta": {"OBJECT_NAME": "STARLINK-36165", "OBJECT_ID": "2025-286N", "EPOCH": "2025-12-15T22:00:01.999584", "MEAN_MOTION": 15.90298896, "ECCENTRICITY": 6.212e-05, "INCLINATION": 53.1566, "RA_OF_ASC_NODE": 34.5, "ARG_OF_PERICENTER": 78.7291, "MEAN_ANOMALY": 290.7235, "EPHEMERIS_TYPE": 0, "CLASSIFICATION_TYPE": "U", "NORAD_CAT_ID": 66937, "ELEMENT_SET_NO": 999, "REV_AT_EPOCH": 250, "BSTAR": -0.0045251867, "MEAN_MOTION_DOT": -0.01253496, "MEAN_MOTION_DDOT": 0}, "tle": {"line1": "1 66937U 25286N   25349.91668981 -.01253496  00000+0 -45252-2 0  9996", "line2": "2 66937  53.1566  34.5000 0000621  78.7291 290.7235 15.90298896  2506"}}, "geometry": {"type": "Point", "coordinates": [-138.58025881520902, -13.38481524387986]}}, {"type": "Feature", "properties": {"norad_id": 66938, "name": "STARLINK-36155", "group": "last-30-days", "lat": -14.964523721582594, "lon": -137.3010656408693, "alt_km": 309.1348764422655, "timestamp": "2025-12-16T13:52:36.289267+00:00", "meta": {"OBJECT_NAME": "STARLINK-36155", "OBJECT_ID": "2025-286P", "EPOCH": "2025-12-15T22:00:01.999584", "MEAN_MOTION": 15.90348479, "ECCENTRICITY": 5.496e-05, "INCLINATION": 53.1564, "RA_OF_ASC_NODE": 34.4959, "ARG_OF_PERICENTER": 90.865, "MEAN_ANOMALY": 280.4952, "EPHEMERIS_TYPE": 0, "CLASSIFICATION_TYPE": "U", "NORAD_CAT_ID": 66938, "ELEMENT_SET_NO": 999, "REV_AT_EPOCH": 250, "BSTAR": -0.0045441799, "MEAN_MOTION_DOT": -0.01260985, "MEAN_MOTION_DDOT": 0}, "tle": {"line1": "1 66938U 25286P   25349.91668981 -.01260985  00000+0 -45442-2 0  9999", "line2": "2 66938  53.1564  34.4959 0000549  90.8650 280.4952 15.90348479  2505"}}, "geometry": {"type": "Point", "coordinates": [-137.3010656408693, -14.964523721582594]}}, {"type": "Feature", "properties": {"norad_id": 66939, "name": "STARLINK-36154", "group": "last-30-days", "lat": -18.351138550419613, "lon": -134.4694161058759, "alt_km": 309.2685385040468, "timestamp": "2025-12-16T13:52:36.289277+00:00", "meta": {"OBJECT_NAME": "STARLINK-36154", "OBJECT_ID": "2025-286Q", "EPOCH": "2025-12-15T22:00:01.999584", "MEAN_MOTION": 15.90441491, "ECCENTRICITY": 5.679e-05, "INCLINATION": 53.1564, "RA_OF_ASC_NODE": 34.4873, "ARG_OF_PERICENTER": 91.7572, "MEAN_ANOMALY": 283.7456, "EPHEMERIS_TYPE": 0, "CLASSIFICATION_TYPE": "U", "NORAD_CAT_ID": 66939, "ELEMENT_SET_NO": 999, "REV_AT_EPOCH": 250, "BSTAR": -0.0045611754, "MEAN_MOTION_DOT": -0.01270579, "MEAN_MOTION_DDOT": 0}, "tle": {"line1": "1 66939U 25286Q   25349.91668981 -.01270579  00000+0 -45612-2 0  9999", "line2": "2 66939  53.1564  34.4873 0000567  91.7572 283.7456 15.90441491  2507"}}, "geometry": {"type": "Point", "coordinates": [-134.4694161058759, -18.351138550419613]}}, {"type": "Feature", "properties": {"norad_id": 66940, "name": "STARLINK-36121", "group": "last-30-days", "lat": -19.844936250574786, "lon": -133.17443502679242, "alt_km": 309.3811440840891, "timestamp": "2025-12-16T13:52:36.289289+00:00", "meta": {"OBJECT_NAME": "STARLINK-36121", "OBJECT_ID": "2025-286R", "EPOCH": "2025-12-15T22:00:01.999584", "MEAN_MOTION": 15.90489843, "ECCENTRICITY": 6.499e-05, "INCLINATION": 53.1562, "RA_OF_ASC_NODE": 34.4833, "ARG_OF_PERICENTER": 87.7886, "MEAN_ANOMALY": 289.55, "EPHEMERIS_TYPE": 0, "CLASSIFICATION_TYPE": "U", "NORAD_CAT_ID": 66940, "ELEMENT_SET_NO": 999, "REV_AT_EPOCH": 250, "BSTAR": -0.0045861481, "MEAN_MOTION_DOT": -0.0127962, "MEAN_MOTION_DDOT": 0}, "tle": {"line1": "1 66940U 25286R   25349.91668981 -.01279620  00000+0 -45861-2 0  9993", "line2": "2 66940  53.1562  34.4833 0000649  87.7886 289.5500 15.90489843  2504"}}, "geometry": {"type": "Point", "coordinates": [-133.17443502679242, -19.844936250574786]}}, {"type": "Feature", "properties": {"norad_id": 66941, "name": "STARLINK-36088", "group": "last-30-days", "lat": -16.774813614645453, "lon": -135.8042731691342, "alt_km": 309.2988860745136, "timestamp": "2025-12-16T13:52:36.289299+00:00", "meta": {"OBJECT_NAME": "STARLINK-36088", "OBJECT_ID": "2025-286S", "EPOCH": "2025-12-15T22:00:01.999584", "MEAN_MOTION": 15.90396175, "ECCENTRICITY": 6.464e-05, "INCLINATION": 53.1563, "RA_OF_ASC_NODE": 34.491, "ARG_OF_PERICENTER": 84.9772, "MEAN_ANOMALY": 288.5959, "EPHEMERIS_TYPE": 0, "CLASSIFICATION_TYPE": "U", "NORAD_CAT_ID": 66941, "ELEMENT_SET_NO": 999, "REV_AT_EPOCH": 250, "BSTAR": -0.0045547028, "MEAN_MOTION_DOT": -0.01266395, "MEAN_MOTION_DDOT": 0}, "tle": {"line1": "1 66941U 25286S   25349.91668981 -.01266395  00000+0 -45547-2 0  9990", "line2": "2 66941  53.1563  34.4910 0000646  84.9772 288.5959 15.90396175  2504"}}, "geometry": {"type": "Point", "coordinates": [-135.8042731691342, -16.774813614645453]}}, {"type": "Feature", "properties": {"norad_id": 66942, "name": "STARLINK-36100", "group": "last-30-days", "lat": -21.401658283821888, "lon": -131.7893280164503, "alt_km": 309.24218947364443, "timestamp": "2025-12-16T13:52:36.289309+00:00", "meta": {"OBJECT_NAME": "STARLINK-36100", "OBJECT_ID": "2025-286T", "EPOCH": "2025-12-15T22:00:01.999584", "MEAN_MOTION": 15.90538104, "ECCENTRICITY": 5.814e-05, "INCLINATION": 53.1561, "RA_OF_ASC_NODE": 34.4793, "ARG_OF_PERICENTER": 103.846, "MEAN_ANOMALY": 275.4159, "EPHEMERIS_TYPE": 0, "CLASSIFICATION_TYPE": "U", "NORAD_CAT_ID": 66942, "ELEMENT_SET_NO": 999, "REV_AT_EPOCH": 243, "BSTAR": -0.0045940002, "MEAN_MOTION_DOT": -0.01284353, "MEAN_MOTION_DDOT": 0}, "tle": {"line1": "1 66942U 25286T   25349.91668981 -.01284353  00000+0 -45940-2 0  9992", "line2": "2 66942  53.1561  34.4793 0000581 103.8460 275.4159 15.90538104  2434"}}, "geometry": {"type": "Point", "coordinates": [-131.7893280164503, -21.401658283821888]}}, {"type": "Feature", "properties": {"norad_id": 66943, "name": "STARLINK-36109", "group": "last-30-days", "lat": -23.206711686554783, "lon": -130.1322566063062, "alt_km": 309.44816497796546, "timestamp": "2025-12-16T13:52:36.289320+00:00", "meta": {"OBJECT_NAME": "STARLINK-36109", "OBJECT_ID": "2025-286U", "EPOCH": "2025-12-15T22:00:01.999584", "MEAN_MOTION": 15.90588681, "ECCENTRICITY": 6.56e-05, "INCLINATION": 53.1561, "RA_OF_ASC_NODE": 34.4744, "ARG_OF_PERICENTER": 91.8466, "MEAN_ANOMALY": 289.6857, "EPHEMERIS_TYPE": 0, "CLASSIFICATION_TYPE": "U", "NORAD_CAT_ID": 66943, "ELEMENT_SET_NO": 999, "REV_AT_EPOCH": 243, "BSTAR": -0.0046202118, "MEAN_MOTION_DOT": -0.01293872, "MEAN_MOTION_DDOT": 0}, "tle": {"line1": "1 66943U 25286U   25349.91668981 -.01293872  00000+0 -46202-2 0  9991", "line2": "2 66943  53.1561  34.4744 0000656  91.8466 289.6857 15.90588681  2433"}}, "geometry": {"type": "Point", "coordinates": [-130.1322566063062, -23.206711686554783]}}, {"type": "Feature", "properties": {"norad_id": 66944, "name": "STARLINK-36112", "group": "last-30-days", "lat": -24.6612470985195, "lon": -128.75164902824517, "alt_km": 309.4755906665987, "timestamp": "2025-12-16T13:52:36.289329+00:00", "meta": {"OBJECT_NAME": "STARLINK-36112", "OBJECT_ID": "2025-286V", "EPOCH": "2025-12-15T22:00:01.999584", "MEAN_MOTION": 15.90633345, "ECCENTRICITY": 6.455e-05, "INCLINATION": 53.156, "RA_OF_ASC_NODE": 34.4705, "ARG_OF_PERICENTER": 88.0304, "MEAN_ANOMALY": 295.3222, "EPHEMERIS_TYPE": 0, "CLASSIFICATION_TYPE": "U", "NORAD_CAT_ID": 66944, "ELEMENT_SET_NO": 999, "REV_AT_EPOCH": 250, "BSTAR": -0.0046021242, "MEAN_MOTION_DOT": -0.01292026, "MEAN_MOTION_DDOT": 0}, "tle": {"line1": "1 66944U 25286V   25349.91668981 -.01292026  00000+0 -46021-2 0  9991", "line2": "2 66944  53.1560  34.4705 0000645  88.0304 295.3222 15.90633345  2503"}}, "geometry": {"type": "Point", "coordinates": [-128.75164902824517, -24.6612470985195]}}, {"type": "Feature", "properties": {"norad_id": 66945, "name": "STARLINK-36110", "group": "last-30-days", "lat": -26.396828423770184, "lon": -127.04412207994085, "alt_km": 309.45734114292645, "timestamp": "2025-12-16T13:52:36.289339+00:00", "meta": {"OBJECT_NAME": "STARLINK-36110", "OBJECT_ID": "2025-286W", "EPOCH": "2025-12-15T22:00:01.999584", "MEAN_MOTION": 15.90681042, "ECCENTRICITY": 6.052e-05, "INCLINATION": 53.1558, "RA_OF_ASC_NODE": 34.4659, "ARG_OF_PERICENTER": 91.4564, "MEAN_ANOMALY": 294.1137, "EPHEMERIS_TYPE": 0, "CLASSIFICATION_TYPE": "U", "NORAD_CAT_ID": 66945, "ELEMENT_SET_NO": 999, "REV_AT_EPOCH": 250, "BSTAR": -0.0046021022, "MEAN_MOTION_DOT": -0.01294822, "MEAN_MOTION_DDOT": 0}, "tle": {"line1": "1 66945U 25286W   25349.91668981 -.01294822  00000+0 -46021-2 0  9998", "line2": "2 66945  53.1558  34.4659 0000605  91.4564 294.1137 15.90681042  2500"}}, "geometry": {"type": "Point", "coordinates": [-127.04412207994085, -26.396828423770184]}}]}